420P/Hill,e,14.5042,173.9519,157.0972,5.530652,0.0757774,0.49582085,357.6868,04/22.0/2022,2000,g 11.5,4.0
# From MPEC 2021-W31
421P/McNaught,e,10.0794,55.3477,259.8368,5.075433,0.0861974,0.67547930,38.8919,04/22.0/2022,2000,g 14.0,4.0
# From MPEC 2022-A21
422P/Christensen,e,39.5471,36.0341,305.1545,6.320964,0.0620196,0.50874847,6.0912,04/22.0/2022,2000,g 11.0,4.0
# From MPEC 2022-A21
423P/Lemmon,e,8.3459,33.3046,80.3000,6.166329,0.0643671,0.12104665,13.8701,04/22.0/2022,2000,g  8.0,4.0
# From MPEC 2022-CN4
424P/LaSagra,e,8.6855,51.1775,312.4776,4.414009,0.1062807,0.69126758,18.3191,04/22.0/2022,2000,g 17.0,4.0
# From MPEC 2022-GA9
425P/Kowalski,e,16.4205,210.0850,200.7533,6.331554,0.0618641,0.54352703,13.2087,04/22.0/2022,2000,g 12.0,4.0
# From MPEC 2021-Y10
426P/PANSTARRS,e,17.7730,280.5218,119.1219,3.186277,0.1732921,0.16132058,271.6193,04/22.0/2022,2000,g 13.5,4.0
# From MPEC 2022-C56
428P/Gibbs,e,8.5148,299.3371,36.8231,3.484399,0.1515347,0.51949332,51.8753,04/22.0/2022,2000,g 15.0,4.0
# From MPEC 2022-H04
429P/LINEAR-Hill,e,7.5220,322.0732,75.5388,3.550593,0.1473170,0.49128422,16.1839,04/22.0/2022,2000,g 15.5,4.0
# From MPEC 2022-CN4
430P/Scotti,e,4.4750,54.6720,94.4977,3.106687,0.1799939,0.49959483,25.3404,04/22.0/2022,2000,g 16.5,4.0
# From MPEC 2022-ED3
431P/Scotti,e,22.3922,202.8463,199.8573,3.472273,0.1523292,0.47766611,10.3022,04/22.0/2022,2000,g 14.0,4.0
# From MPEC 2021-U31
432P/PANSTARRS,e,10.0694,239.1429,105.2362,3.035484,0.1863641,0.24202970,43.7305,04/22.0/2022,2000,g 17.0,4.0
# From MPEC 2022-GA9
434P/Tenagra,e,6.3396,288.9680,128.0538,4.128028,0.1175141,0.27435015,20.9379,04/22.0/2022,2000,g 13.0,4.0
# From MPEC 2021-W31
435P/PANSTARRS,e,18.8827,98.5498,244.1517,3.018366,0.1879517,0.31871290,50.4718,04/22.0/2022,2000,g 17.0,4.0
# From MPEC 2022-C56
436P/Garradd,e,20.2105,87.1896,282.5966,5.928863,0.0682727,0.66981378,9.1825,04/22.0/2022,2000,g 14.5,4.0
# From MPEC 2021-Y10
437P/PANSTARRS,e,3.6897,245.8688,206.7116,4.558645,0.1012629,0.25412218,348.0078,04/22.0/2022,2000,g 13.0,4.0
# From MPEC 2021-W47
438P/Christensen,e,8.2878,260.1551,58.9475,3.847055,0.1306206,0.41574479,97.5262,04/22.0/2022,2000,g 14.5,4.0
# From MPEC 2022-C56
439P/LINEAR,e,7.1142,56.4163,342.0008,3.487679,0.1513210,0.46948938,36.1491,04/22.0/2022,2000,g 13.5,4.0
# From MPEC 2022-H04
440P/Kobayashi,e,12.3394,328.8822,183.3181,8.584793,0.0391840,0.76047979,0.9032,04/22.0/2022,2000,g 15.5,4.0
# From MPEC 2022-F14
441P/PANSTARRS,e,2.5745,143.6159,178.7281,4.134798,0.1172256,0.19559913,215.2396,04/22.0/2022,2000,g 13.5,4.0
# From MPC107687
1I/`Oumuamua,h,09/09.4886/2017,122.6778,24.5997,241.6845,1.199252,0.255240,2000,23.0,2.0
# From MPEC 2020-K19
2I/Borisov,h,12/08.5549/2019,44.0527,308.1480,209.1251,3.356636,2.006548,2000,11.0,4.0
